H1 CPF  1  DLR 2021 07 27 10  7082 technosat            
H2  1704205 6203    42829 2021 07 27 00 00 00 2021 08 03 00 00 00    60 1 1  0 0 0
H9
10 0 59425  36000.000000  0      -2367302.402        -68704.798       6551360.371
10 0 59425  36060.000000  0      -2761017.250        105378.363       6395932.092
10 0 59425  36120.000000  0      -3141589.192        282406.340       6213420.880
10 0 59425  36180.000000  0      -3507397.649        461512.981       6004602.173
10 0 59425  36240.000000  0      -3856891.807        641809.645       5770362.152
10 0 59425  36300.000000  0      -4188597.259        822389.516       5511694.065
10 0 59425  36360.000000  0      -4501122.311       1002332.089       5229694.148
10 0 59425  36420.000000  0      -4793163.961       1180707.794       4925557.113
10 0 59425  36480.000000  0      -5063513.502       1356582.708       4600571.156
10 0 59425  36540.000000  0      -5311061.640       1529023.322       4256112.550
10 0 59425  36600.000000  0      -5534803.180       1697101.376       3893639.895
10 0 59425  36660.000000  0      -5733841.250       1859898.721       3514688.004
10 0 59425  36720.000000  0      -5907391.046       2016512.175       3120861.439
10 0 59425  36780.000000  0      -6054783.086       2166058.357       2713827.730
10 0 59425  36840.000000  0      -6175465.928       2307678.470       2295310.301
10 0 59425  36900.000000  0      -6269008.374       2440543.012       1867081.123
10 0 59425  36960.000000  0      -6335101.098       2563856.401       1430953.078
10 0 59425  37020.000000  0      -6373557.645       2676861.430        988772.111
10 0 59425  37080.000000  0      -6384314.812       2778843.545        542409.291
10 0 59425  37140.000000  0      -6367432.531       2869134.943         93752.779
10 0 59425  37200.000000  0      -6323093.137       2947118.470       -355300.359
10 0 59425  37260.000000  0      -6251600.016       3012231.245       -802852.312
10 0 59425  37320.000000  0      -6153375.730       3063968.031      -1247012.674
10 0 59425  37380.000000  0      -6028959.596       3101884.359      -1685906.565
10 0 59425  37440.000000  0      -5879004.691       3125599.372      -2117682.739
10 0 59425  37500.000000  0      -5704274.227       3134798.279      -2540521.476
10 0 59425  37560.000000  0      -5505637.532       3129234.499      -2952642.249
10 0 59425  37620.000000  0      -5284065.580       3108731.478      -3352311.243
10 0 59425  37680.000000  0      -5040626.010       3073184.159      -3737848.614
10 0 59425  37740.000000  0      -4776477.768       3022560.112      -4107635.409
10 0 59425  37800.000000  0      -4492865.412       2956900.291      -4460120.221
10 0 59425  37860.000000  0      -4191113.068       2876319.427      -4793825.522
10 0 59425  37920.000000  0      -3872618.062       2781006.067      -5107353.594
10 0 59425  37980.000000  0      -3538844.339       2671222.294      -5399392.065
10 0 59425  38040.000000  0      -3191315.721       2547303.101      -5668719.099
10 0 59425  38100.000000  0      -2831608.946       2409655.436      -5914208.284
10 0 59425  38160.000000  0      -2461346.468       2258756.897      -6134833.109
10 0 59425  38220.000000  0      -2082189.099       2095154.049      -6329670.965
10 0 59425  38280.000000  0      -1695828.589       1919460.428      -6497906.630
10 0 59425  38340.000000  0      -1303980.264       1732354.287      -6638835.382
10 0 59425  38400.000000  0       -908375.573       1534576.032      -6751865.790
10 0 59425  38460.000000  0       -510754.543       1326925.307      -6836521.994
10 0 59425  38520.000000  0       -112858.377       1110257.857      -6892445.472
10 0 59425  38580.000000  0        283577.882        885482.159      -6919396.564
10 0 59425  38640.000000  0        676832.759        653555.733      -6917255.621
10 0 59425  38700.000000  0       1065205.760        415481.166      -6886023.598
10 0 59425  38760.000000  0       1447024.592        172301.884      -6825822.106
10 0 59425  38820.000000  0       1820652.197        -74902.278      -6736893.042
10 0 59425  38880.000000  0       2184493.602       -325019.698      -6619597.843
10 0 59425  38940.000000  0       2537002.701       -576911.817      -6474416.374
10 0 59425  39000.000000  0       2876688.879       -829418.221      -6301945.210
10 0 59425  39060.000000  0       3202123.272      -1081361.824      -6102895.441
10 0 59425  39120.000000  0       3511944.797      -1331554.175      -5878090.163
10 0 59425  39180.000000  0       3804866.024      -1578800.985      -5628461.571
10 0 59425  39240.000000  0       4079678.777      -1821907.824      -5355047.450
10 0 59425  39300.000000  0       4335259.336      -2059685.872      -5058987.207
10 0 59425  39360.000000  0       4570573.305      -2290957.720      -4741517.466
10 0 59425  39420.000000  0       4784680.084      -2514563.214      -4403967.216
10 0 59425  39480.000000  0       4976736.946      -2729365.291      -4047752.547
10 0 59425  39540.000000  0       5146002.733      -2934255.799      -3674370.963
10 0 59425  39600.000000  0       5291841.089      -3128161.271      -3285395.257
10 0 59425  39660.000000  0       5413723.243      -3310048.596      -2882466.999
10 0 59425  39720.000000  0       5511230.258      -3478930.577      -2467289.597
10 0 59425  39780.000000  0       5584054.714      -3633871.293      -2041621.081
10 0 59425  39840.000000  0       5632001.926      -3773991.297      -1607266.625
10 0 59425  39900.000000  0       5654990.612      -3898472.625      -1166070.716
10 0 59425  39960.000000  0       5653052.943      -4006563.481       -719909.084
10 0 59425  40020.000000  0       5626334.083      -4097582.628       -270680.525
10 0 59425  40080.000000  0       5575091.193      -4170923.509        179701.515
10 0 59425  40140.000000  0       5499691.758      -4226057.979        629317.457
10 0 59425  40200.000000  0       5400611.390      -4262539.674       1076250.113
10 0 59425  40260.000000  0       5278431.103      -4280006.935       1518593.277
10 0 59425  40320.000000  0       5133834.024      -4278185.257       1954460.242
10 0 59425  40380.000000  0       4967601.612      -4256889.297       2381992.156
10 0 59425  40440.000000  0       4780609.402      -4216024.472       2799366.239
10 0 59425  40500.000000  0       4573822.333      -4155588.080       3204803.829
10 0 59425  40560.000000  0       4348289.665      -4075669.966       3596578.199
10 0 59425  40620.000000  0       4105139.505      -3976452.756       3973022.126
10 0 59425  40680.000000  0       3845572.917      -3858211.601       4332535.180
10 0 59425  40740.000000  0       3570857.703      -3721313.393       4673590.634
10 0 59425  40800.000000  0       3282321.953      -3566215.504       4994741.913
10 0 59425  40860.000000  0       2981347.452      -3393464.159       5294628.681
10 0 59425  40920.000000  0       2669362.861      -3203692.362       5571982.606
10 0 59425  40980.000000  0       2347836.666      -2997617.342       5825632.611
10 0 59425  41040.000000  0       2018270.053      -2776037.641       6054509.617
10 0 59425  41100.000000  0       1682189.726      -2539829.827       6257650.822
10 0 59425  41160.000000  0       1341140.728      -2289944.854       6434203.528
10 0 59425  41220.000000  0        996679.205      -2027404.062       6583428.513
10 0 59425  41280.000000  0        650365.214      -1753294.836       6704702.860
10 0 59425  41340.000000  0        303755.639      -1468765.996       6797522.311
10 0 59425  41400.000000  0        -41602.827      -1175022.850       6861503.170
10 0 59425  41460.000000  0       -384180.584       -873321.971       6896383.643
10 0 59425  41520.000000  0       -722471.834       -564965.806       6902024.726
10 0 59425  41580.000000  0      -1055001.198       -251297.008       6878410.660
10 0 59425  41640.000000  0      -1380330.114         66307.438       6825648.828
10 0 59425  41700.000000  0      -1697063.005        386442.270       6743969.201
10 0 59425  41760.000000  0      -2003853.221        707680.156       6633723.307
10 0 59425  41820.000000  0      -2299408.747       1028578.035       6495382.710
10 0 59425  41880.000000  0      -2582497.618       1347683.570       6329537.018
10 0 59425  41940.000000  0      -2851953.024       1663541.695       6136891.451
10 0 59425  42000.000000  0      -3106678.134       1974701.219       5918263.965
10 0 59425  42060.000000  0      -3345650.620       2279721.510       5674581.926
10 0 59425  42120.000000  0      -3567926.817       2577179.193       5406878.275
10 0 59425  42180.000000  0      -3772645.507       2865674.812       5116287.235
10 0 59425  42240.000000  0      -3959031.303       3143839.412       4804039.619
10 0 59425  42300.000000  0      -4126397.678       3410341.083       4471457.751
10 0 59425  42360.000000  0      -4274149.568       3663891.385       4119949.940
10 0 59425  42420.000000  0      -4401785.536       3903251.622       3751004.602
10 0 59425  42480.000000  0      -4508899.518       4127238.962       3366183.979
10 0 59425  42540.000000  0      -4595182.066       4334732.317       2967117.521
10 0 59425  42600.000000  0      -4660421.121       4524678.043       2555494.990
10 0 59425  42660.000000  0      -4704502.336       4696095.315       2133059.227
10 0 59425  42720.000000  0      -4727408.930       4848081.164       1701598.675
10 0 59425  42780.000000  0      -4729221.076       4979815.153       1262939.711
10 0 59425  42840.000000  0      -4710114.844       5090563.690        818938.814
10 0 59425  42900.000000  0      -4670360.706       5179683.970        371474.604
10 0 59425  42960.000000  0      -4610321.587       5246627.537        -77560.255
10 0 59425  43020.000000  0      -4530450.484       5290943.442       -526267.239
10 0 59425  43080.000000  0      -4431287.581       5312280.884       -972750.311
10 0 59425  43140.000000  0      -4313456.842       5310391.155      -1415124.117
99
